[{"OBJECT_NAME":"SHIJIAN-6 01A (SJ-6 01A)","OBJECT_ID":"2004-035A","EPOCH":"2026-03-09T23:26:31.260480","MEAN_MOTION":15.1644809,"ECCENTRICITY":0.0008065,"INCLINATION":97.598,"RA_OF_ASC_NODE":95.8752,"ARG_OF_PERICENTER":114.4113,"MEAN_ANOMALY":245.7962,"EPHEMERIS_TYPE":0,"CLASSIFICATION_TYPE":"U","NORAD_CAT_ID":28413,"ELEMENT_SET_NO":999,"REV_AT_EPOCH":17242,"BSTAR":0.00047768034,"MEAN_MOTION_DOT":9.235e-5,"MEAN_MOTION_DDOT":0},{"OBJECT_NAME":"FLOCK 4H-6","OBJECT_ID":"2025-276AV","EPOCH":"2026-03-09T17:20:31.081344","MEAN_MOTION":15.19043322,"ECCENTRICITY":0.00022287,"INCLINATION":97.4294,"RA_OF_ASC_NODE":144.0723,"ARG_OF_PERICENTER":346.2393,"MEAN_ANOMALY":13.878,"EPHEMERIS_TYPE":0,"CLASSIFICATION_TYPE":"U","NORAD_CAT_ID":66709,"ELEMENT_SET_NO":999,"REV_AT_EPOCH":1532,"BSTAR":0.00034579491,"MEAN_MOTION_DOT":7.179e-5,"MEAN_MOTION_DDOT":0}]
